     2.100          NAVIGATION                              RINEX VERSION / TYPE
fic2rin                                 09/25/2013 00:26:42 PGM / RUN BY / DATE
                                                            END OF HEADER
17 13  9 24 12  0  0.0 -.245026312768D-04 -.375166564481D-11  .000000000000D+00
     .230000000000D+02 -.343750000000D+00  .463947896721D-08  .815381942171D+00
     .745058059692D-07  .851833785418D-02  .754557549953D-05  .515368251610D+04
     .216000000000D+06 -.298023223877D-07  .168038964828D+01  .100582838058D-06
     .966085148844D+00  .239343750000D+03 -.219087047208D+01 -.820855620503D-08
     .210723063176D-09  .100000000000D+01  .175900000000D+04  .000000000000D+00
     .240000000000D+01  .000000000000D+00 -.102445483208D-07  .230000000000D+02
     .208806000000D+06  .400000000000D+01
18 13  9 24 12  0  0.0  .275783240795D-03  .204636307899D-11  .000000000000D+00
     .830000000000D+02  .247500000000D+02  .494413451448D-08  .232905145256D+01
     .119023025036D-05  .145856820745D-01  .100117176771D-04  .515364045334D+04
     .216000000000D+06  .484287738800D-07 -.255225468047D+01 -.258907675743D-06
     .927047263285D+00  .165437500000D+03 -.207819266390D+01 -.802426281418D-08
    -.131076888450D-09  .100000000000D+01  .175900000000D+04  .000000000000D+00
     .340000000000D+01  .000000000000D+00 -.107102096081D-07  .830000000000D+02
     .208806000000D+06  .400000000000D+01
20 13  9 24 12  0  0.0  .124633777887D-03  .261479726760D-11  .000000000000D+00
     .510000000000D+02  .285312500000D+02  .493699135979D-08  .281116494453D+01
     .148825347424D-05  .556791434065D-02  .103916972876D-04  .515367824936D+04
     .216000000000D+06  .689178705215D-07 -.260555254434D+01 -.167638063431D-07
     .927917218242D+00  .159375000000D+03  .128760086044D+01 -.807712215884D-08
    -.226795161215D-09  .100000000000D+01  .175900000000D+04  .000000000000D+00
     .240000000000D+01  .000000000000D+00 -.791624188423D-08  .510000000000D+02
     .208806000000D+06  .400000000000D+01
21 13  9 24 12  0  0.0 -.320271123201D-03 -.193267624127D-11  .000000000000D+00
     .750000000000D+02 -.290625000000D+02  .525129016589D-08 -.293423816373D+01
    -.162236392498D-05  .205760969548D-01  .630319118500D-05  .515362565041D+04
     .216000000000D+06  .223517417908D-06  .268454831245D+01 -.273808836937D-06
     .932032844212D+00  .238937500000D+03 -.210322550511D+01 -.812033824468D-08
    -.197508227010D-09  .100000000000D+01  .175900000000D+04  .000000000000D+00
     .240000000000D+01  .000000000000D+00 -.111758708954D-07  .750000000000D+02
     .208806000000D+06  .400000000000D+01
22 13  9 24 12  0  0.0  .186350196600D-03  .193267624127D-11  .000000000000D+00
     .880000000000D+02  .277187500000D+02  .513699969094D-08  .174986375660D+01
     .139512121677D-05  .677311327308D-02  .990740954876D-05  .515365144348D+04
     .216000000000D+06 -.102445483208D-06 -.254988528715D+01 -.108033418655D-06
     .924801394376D+00  .169468750000D+03 -.203650934701D+01 -.827891627867D-08
    -.160363822654D-09  .100000000000D+01  .175900000000D+04  .000000000000D+00
     .340000000000D+01  .000000000000D+00 -.172294676304D-07  .880000000000D+02
     .208806000000D+06  .400000000000D+01
23 13  9 24 12  0  0.0  .452958047390D-04 -.341060513165D-11  .000000000000D+00
     .430000000000D+02  .891875000000D+02  .473769734411D-08 -.453261764560D+00
     .473298132420D-05  .889124581590D-02  .538863241673D-05  .515365703583D+04
     .216000000000D+06  .162050127983D-06 -.149035028607D+01  .596046447754D-07
     .954120696740D+00  .270406250000D+03 -.282189433244D+01 -.843106547343D-08
     .247153152064D-09  .100000000000D+01  .175900000000D+04  .000000000000D+00
     .240000000000D+01  .000000000000D+00 -.200234353542D-07  .430000000000D+02
     .208806000000D+06  .400000000000D+01
24 13  9 24 12  0  0.0 -.143325887620D-04 -.682121026330D-12  .000000000000D+00
     .610000000000D+02 -.285625000000D+02  .477662753714D-08 -.105364828749D+01
    -.154785811901D-05  .106255593710D-02  .404752790928D-05  .515365612030D+04
     .216000000000D+06  .391155481339D-07 -.463461037767D+00 -.931322574615D-08
     .958496151589D+00  .300281250000D+03  .164196280897D+00 -.834856203683D-08
    -.817891211309D-10  .100000000000D+01  .175900000000D+04  .000000000000D+00
     .240000000000D+01  .000000000000D+00  .325962901115D-08  .610000000000D+02
     .208806000000D+06  .400000000000D+01
25 13  9 24 12  0  0.0  .150668900460D-03  .397903932026D-11  .000000000000D+00
     .870000000000D+02 -.457812500000D+02  .407338395851D-08  .297396666659D+01
    -.245869159698D-05  .274371204432D-02  .903941690922D-05  .515372494507D+04
     .216000000000D+06 -.651925802231D-07  .586931335360D+00 -.447034835815D-07
     .974251663732D+00  .211625000000D+03  .733601879611D+00 -.777425240025D-08
     .521450291926D-10  .100000000000D+01  .175900000000D+04  .000000000000D+00
     .240000000000D+01  .000000000000D+00  .558793544769D-08  .870000000000D+02
     .208806000000D+06  .400000000000D+01
26 13  9 24 12  0  0.0  .205575022846D-03  .186446413863D-10  .000000000000D+00
     .900000000000D+02  .670312500000D+02  .439482591928D-08 -.446102117670D+00
     .371225178242D-05  .210599742131D-01  .594928860664D-05  .515368556976D+04
     .216000000000D+06 -.150874257088D-06 -.140712997773D+01  .203028321266D-06
     .977324991292D+00  .280500000000D+03  .125205067399D+01 -.846463830045D-08
     .248224625266D-09  .100000000000D+01  .175900000000D+04  .000000000000D+00
     .240000000000D+01  .000000000000D+00 -.558793544769D-08  .900000000000D+02
     .208806000000D+06  .400000000000D+01
27 13  9 24 12  0  0.0 -.402834266424D-04 -.443378667114D-11  .000000000000D+00
     .670000000000D+02  .812500000000D+01  .473484008224D-08  .327851498617D-02
     .463798642159D-06  .449455576017D-03  .734813511372D-05  .515366314316D+04
     .216000000000D+06 -.558793544769D-08  .163639689722D+01  .558793544769D-08
     .960699048743D+00  .234031250000D+03  .920031002847D+00 -.813962476233D-08
     .287869133762D-09  .100000000000D+01  .175900000000D+04  .000000000000D+00
     .240000000000D+01  .000000000000D+00  .186264514923D-08  .670000000000D+02
     .208806000000D+06  .400000000000D+01
28 13  9 24 12  0  0.0  .295164994895D-03  .306954461848D-11  .000000000000D+00
     .950000000000D+02 -.680937500000D+02  .384051711581D-08  .160630054251D+01
    -.375695526600D-05  .187770019984D-01  .959821045399D-05  .515366099739D+04
     .216000000000D+06 -.167638063431D-06  .651064912015D+00 -.469386577606D-06
     .984550658213D+00  .211562500000D+03 -.176233402141D+01 -.774817988565D-08
     .101789954246D-09  .100000000000D+01  .175900000000D+04  .000000000000D+00
     .240000000000D+01  .000000000000D+00 -.107102096081D-07  .950000000000D+02
     .208806000000D+06  .400000000000D+01
29 13  9 24 12  0  0.0  .473303254694D-03  .318323145621D-11  .000000000000D+00
     .440000000000D+02  .218750000000D+01  .448982987658D-08 -.263401286363D+01
     .204890966415D-07  .145375437569D-02  .738352537155D-05  .515357490730D+04
     .216000000000D+06 -.298023223877D-07  .168926393171D+01  .558793544769D-08
     .966756296160D+00  .239843750000D+03 -.981895044967D+00 -.797854662421D-08
     .232866842696D-09  .100000000000D+01  .175900000000D+04  .000000000000D+00
     .240000000000D+01  .000000000000D+00 -.931322574615D-08  .440000000000D+02
     .208806000000D+06  .400000000000D+01
30 13  9 24 12  0  0.0  .852905213833D-05 -.515001374879D-10  .000000000000D+00
     .350000000000D+02  .890625000000D+01  .493984862167D-08 -.307857307589D+01
     .458210706711D-06  .833687873092D-02  .766664743423D-05  .515362135506D+04
     .216000000000D+06 -.633299350739D-07  .155300313069D+01  .122934579849D-06
     .944395098852D+00  .220718750000D+03 -.754132773297D+00 -.810890919719D-08
     .293226499775D-09  .100000000000D+01  .175900000000D+04  .000000000000D+00
     .240000000000D+01  .630000000000D+02 -.232830643654D-08  .350000000000D+02
     .208806000000D+06  .400000000000D+01
31 13  9 24 12  0  0.0  .326538924128D-03  .795807864051D-12  .000000000000D+00
     .122000000000D+03 -.422500000000D+02  .434446667876D-08 -.196825355247D+01
    -.201910734177D-05  .794779928401D-02  .466220080853D-05  .515367297173D+04
     .216000000000D+06 -.188127160072D-06 -.427890316332D+00  .260770320892D-07
     .980023775250D+00  .303093750000D+03 -.734327672769D+00 -.807212195057D-08
    -.107147320259D-09  .100000000000D+01  .175900000000D+04  .000000000000D+00
     .240000000000D+01  .000000000000D+00 -.130385160446D-07  .122000000000D+03
     .208806000000D+06  .400000000000D+01
32 13  9 24 12  0  0.0 -.546281225979D-03  .306954461848D-11  .000000000000D+00
     .510000000000D+02  .399687500000D+02  .453304596242D-08 -.150837358895D+01
     .199489295483D-05  .116042157169D-01  .105891376734D-04  .515359393120D+04
     .216000000000D+06 -.838190317154D-07 -.246339424802D+01 -.150874257088D-06
     .948927674029D+00  .171093750000D+03 -.288873531256D+00 -.800819071614D-08
     .464305054455D-11  .100000000000D+01  .175900000000D+04  .000000000000D+00
     .240000000000D+01  .000000000000D+00 -.279396772385D-08  .510000000000D+02
     .208806000000D+06  .400000000000D+01
18 13  9 24 11 59 44.0  .275784637779D-03  .204636307899D-11  .000000000000D+00
     .900000000000D+01  .247500000000D+02  .494413451448D-08  .232671779979D+01
     .119023025036D-05  .145856840536D-01  .100135803223D-04  .515364045715D+04
     .215984000000D+06  .484287738800D-07 -.255225455320D+01 -.258907675743D-06
     .927047270600D+00  .165437500000D+03 -.207819283067D+01 -.802426281418D-08
    -.130362572982D-09  .100000000000D+01  .175900000000D+04  .000000000000D+00
     .240000000000D+01  .000000000000D+00 -.107102096081D-07  .900000000000D+01
     .212166000000D+06  .400000000000D+01
